{
    "links": {
        "self": "http://www.neowsapp.com/rest/v1/neo/3696457?api_key=iIulBulltgU6a56xZRHN4H3l9WmuAYTsLGpBGhQ2"
    },
    "id": "3696457",
    "neo_reference_id": "3696457",
    "name": "(2014 WO69)",
    "designation": "2014 WO69",
    "nasa_jpl_url": "http://ssd.jpl.nasa.gov/sbdb.cgi?sstr=3696457",
    "absolute_magnitude_h": 23.6,
    "estimated_diameter": {
        "kilometers": {
            "estimated_diameter_min": 0.0506471459,
            "estimated_diameter_max": 0.1132504611
        },
        "meters": {
            "estimated_diameter_min": 50.6471458835,
            "estimated_diameter_max": 113.2504610618
        },
        "miles": {
            "estimated_diameter_min": 0.0314706677,
            "estimated_diameter_max": 0.0703705522
        },
        "feet": {
            "estimated_diameter_min": 166.1651821003,
            "estimated_diameter_max": 371.5566426699
        }
    },
    "is_potentially_hazardous_asteroid": false,
    "close_approach_data": [
        {
            "close_approach_date": "2014-11-05",
            "close_approach_date_full": "2014-Nov-05 03:14",
            "epoch_date_close_approach": 1415157240000,
            "relative_velocity": {
                "kilometers_per_second": "5.7873711231",
                "kilometers_per_hour": "20834.5360432082",
                "miles_per_hour": "12945.7704652923"
            },
            "miss_distance": {
                "astronomical": "0.0990501619",
                "lunar": "38.5305129791",
                "kilometers": "14817693.243395153",
                "miles": "9207287.6338449914"
            },
            "orbiting_body": "Earth"
        }
    ],
    "orbital_data": {
        "orbit_id": "8",
        "orbit_determination_date": "2017-04-06 08:37:23",
        "first_observation_date": "2014-11-19",
        "last_observation_date": "2014-12-16",
        "data_arc_in_days": 27,
        "observations_used": 26,
        "orbit_uncertainty": "7",
        "minimum_orbit_intersection": ".100322",
        "jupiter_tisserand_invariant": "3.735",
        "epoch_osculation": "2459000.5",
        "eccentricity": ".4479703608432594",
        "semi_major_axis": "1.968542203885208",
        "inclination": "6.820795828144818",
        "ascending_node_longitude": "56.15109711207215",
        "orbital_period": "1008.824270579904",
        "perihelion_distance": "1.086693642475566",
        "perihelion_argument": "343.7374439169256",
        "aphelion_distance": "2.85039076529485",
        "perihelion_time": "2458981.349919988345",
        "mean_anomaly": "6.833726155530277",
        "mean_motion": ".3568510497800184",
        "equinox": "J2000",
        "orbit_class": {
            "orbit_class_type": "AMO",
            "orbit_class_description": "Near-Earth asteroid orbits similar to that of 1221 Amor",
            "orbit_class_range": "1.017 AU < q (perihelion) < 1.3 AU"
        }
    },
    "is_sentry_object": false
}